{"type": "FeatureCollection", "features": [ {"type": "Feature", "properties": {"norad_id": 45358, "name": "COSMOS 2545 (760)", "group": "glo-ops", "lat": -33.49961245397309, "lon": 157.19277633545872, "alt_km": 19108.939208628664, "timestamp": "2025-12-18T08:58:43.672242+00:00", "meta": {"OBJECT_NAME": "COSMOS 2545 (760)", "OBJECT_ID": "2020-018A", "EPOCH": "2025-12-16T05:06:52.711776", "MEAN_MOTION": 2.13102549, "ECCENTRICITY": 0.00116565, "INCLINATION": 64.4672, "RA_OF_ASC_NODE": 318.8472, "ARG_OF_PERICENTER": 249.26, "MEAN_ANOMALY": 110.6088, "EPHEMERIS_TYPE": 0, "CLASSIFICATION_TYPE": "U", "NORAD_CAT_ID": 45358, "ELEMENT_SET_NO": 999, "REV_AT_EPOCH": 4476, "BSTAR": 0, "MEAN_MOTION_DOT": -7e-07, "MEAN_MOTION_DDOT": 0}, "tle": {"line1": "1 45358U 20018A   25350.21311009 -.00000070  00000+0  00000+0 0  9994", "line2": "2 45358  64.4672 318.8472 0011656 249.2600 110.6088  2.13102549 44763"}}, "geometry": {"type": "Point", "coordinates": [157.19277633545872, -33.49961245397309]}}, {"type": "Feature", "properties": {"norad_id": 46805, "name": "COSMOS 2547 (705K)", "group": "glo-ops", "lat": 59.96373342355781, "lon": -106.18500644532966, "alt_km": 19137.73538028235, "timestamp": "2025-12-18T08:58:43.672257+00:00", "meta": {"OBJECT_NAME": "COSMOS 2547 (705K)", "OBJECT_ID": "2020-075A", "EPOCH": "2025-12-17T08:09:16.456320", "MEAN_MOTION": 2.1310013, "ECCENTRICITY": 0.0006169, "INCLINATION": 64.5962, "RA_OF_ASC_NODE": 198.5429, "ARG_OF_PERICENTER": 228.3795, "MEAN_ANOMALY": 131.6499, "EPHEMERIS_TYPE": 0, "CLASSIFICATION_TYPE": "U", "NORAD_CAT_ID": 46805, "ELEMENT_SET_NO": 999, "REV_AT_EPOCH": 4003, "BSTAR": 0, "MEAN_MOTION_DOT": 1.12e-06, "MEAN_MOTION_DDOT": 0}, "tle": {"line1": "1 46805U 20075A   25351.33977380  .00000112  00000+0  00000+0 0  9995", "line2": "2 46805  64.5962 198.5429 0006169 228.3795 131.6499  2.13100130 40034"}}, "geometry": {"type": "Point", "coordinates": [-106.18500644532966, 59.96373342355781]}}, {"type": "Feature", "properties": {"norad_id": 52984, "name": "COSMOS 2557 (706K)", "group": "glo-ops", "lat": -46.314449707093466, "lon": -69.27283271588622, "alt_km": 19104.97527436953, "timestamp": "2025-12-18T08:58:43.672269+00:00", "meta": {"OBJECT_NAME": "COSMOS 2557 (706K)", "OBJECT_ID": "2022-075A", "EPOCH": "2025-12-16T02:19:59.542752", "MEAN_MOTION": 2.13101842, "ECCENTRICITY": 0.001368, "INCLINATION": 64.4074, "RA_OF_ASC_NODE": 320.9331, "ARG_OF_PERICENTER": 277.1677, "MEAN_ANOMALY": 82.672, "EPHEMERIS_TYPE": 0, "CLASSIFICATION_TYPE": "U", "NORAD_CAT_ID": 52984, "ELEMENT_SET_NO": 999, "REV_AT_EPOCH": 2681, "BSTAR": 0, "MEAN_MOTION_DOT": -7e-07, "MEAN_MOTION_DDOT": 0}, "tle": {"line1": "1 52984U 22075A   25350.09721693 -.00000070  00000+0  00000+0 0  9992", "line2": "2 52984  64.4074 320.9331 0013680 277.1677  82.6720  2.13101842 26815"}}, "geometry": {"type": "Point", "coordinates": [-69.27283271588622, -46.314449707093466]}}, {"type": "Feature", "properties": {"norad_id": 54031, "name": "COSMOS 2559 (707K)", "group": "glo-ops", "lat": 63.97906553726381, "lon": 40.2558954974645, "alt_km": 19131.576555728858, "timestamp": "2025-12-18T08:58:43.672280+00:00", "meta": {"OBJECT_NAME": "COSMOS 2559 (707K)", "OBJECT_ID": "2022-130A", "EPOCH": "2025-12-17T07:46:49.658304", "MEAN_MOTION": 2.13101395, "ECCENTRICITY": 0.00116575, "INCLINATION": 64.3796, "RA_OF_ASC_NODE": 320.9797, "ARG_OF_PERICENTER": 192.1273, "MEAN_ANOMALY": 167.8384, "EPHEMERIS_TYPE": 0, "CLASSIFICATION_TYPE": "U", "NORAD_CAT_ID": 54031, "ELEMENT_SET_NO": 999, "REV_AT_EPOCH": 2481, "BSTAR": 0, "MEAN_MOTION_DOT": -6.8e-07, "MEAN_MOTION_DDOT": 0}, "tle": {"line1": "1 54031U 22130A   25351.32418586 -.00000068  00000+0  00000+0 0  9997", "line2": "2 54031  64.3796 320.9797 0011657 192.1273 167.8384  2.13101395 24819"}}, "geometry": {"type": "Point", "coordinates": [40.2558954974645, 63.97906553726381]}}, {"type": "Feature", "properties": {"norad_id": 54377, "name": "COSMOS 2564 (761)", "group": "glo-ops", "lat": -22.47751825146891, "lon": 29.985317446320227, "alt_km": 19111.265425906087, "timestamp": "2025-12-18T08:58:43.672291+00:00", "meta": {"OBJECT_NAME": "COSMOS 2564 (761)", "OBJECT_ID": "2022-161A", "EPOCH": "2025-12-16T16:46:44.679072", "MEAN_MOTION": 2.13102099, "ECCENTRICITY": 0.00085776, "INCLINATION": 64.7384, "RA_OF_ASC_NODE": 198.7673, "ARG_OF_PERICENTER": 204.2808, "MEAN_ANOMALY": 155.7608, "EPHEMERIS_TYPE": 0, "CLASSIFICATION_TYPE": "U", "NORAD_CAT_ID": 54377, "ELEMENT_SET_NO": 999, "REV_AT_EPOCH": 2374, "BSTAR": 0, "MEAN_MOTION_DOT": 1.11e-06, "MEAN_MOTION_DDOT": 0}, "tle": {"line1": "1 54377U 22161A   25350.69912823  .00000111  00000+0  00000+0 0  9994", "line2": "2 54377  64.7384 198.7673 0008577 204.2808 155.7608  2.13102099 23747"}}, "geometry": {"type": "Point", "coordinates": [29.985317446320227, -22.47751825146891]}}, {"type": "Feature", "properties": {"norad_id": 57517, "name": "COSMOS 2569 (703K)", "group": "glo-ops", "lat": -13.220894462334826, "lon": -95.0414894697198, "alt_km": 19133.07532297891, "timestamp": "2025-12-18T08:58:43.672302+00:00", "meta": {"OBJECT_NAME": "COSMOS 2569 (703K)", "OBJECT_ID": "2023-114A", "EPOCH": "2025-12-17T15:37:24.355776", "MEAN_MOTION": 2.13104039, "ECCENTRICITY": 0.00107108, "INCLINATION": 65.1967, "RA_OF_ASC_NODE": 78.7475, "ARG_OF_PERICENTER": 286.9881, "MEAN_ANOMALY": 72.9145, "EPHEMERIS_TYPE": 0, "CLASSIFICATION_TYPE": "U", "NORAD_CAT_ID": 57517, "ELEMENT_SET_NO": 999, "REV_AT_EPOCH": 1839, "BSTAR": 0, "MEAN_MOTION_DOT": -4.6e-07, "MEAN_MOTION_DDOT": 0}, "tle": {"line1": "1 57517U 23114A   25351.65097634 -.00000046  00000+0  00000+0 0  9991", "line2": "2 57517  65.1967  78.7475 0010710 286.9881  72.9145  2.13104039 18392"}}, "geometry": {"type": "Point", "coordinates": [-95.0414894697198, -13.220894462334826]}}, {"type": "Feature", "properties": {"norad_id": 63130, "name": "COSMOS 2584 (704K)", "group": "glo-ops", "lat": -62.51983448828057, "lon": 15.276287698393828, "alt_km": 19127.68120978694, "timestamp": "2025-12-18T08:58:43.672314+00:00", "meta": {"OBJECT_NAME": "COSMOS 2584 (704K)", "OBJECT_ID": "2025-042A", "EPOCH": "2025-12-14T17:19:43.603680", "MEAN_MOTION": 2.13103043, "ECCENTRICITY": 0.00076907, "INCLINATION": 64.977, "RA_OF_ASC_NODE": 79.0784, "ARG_OF_PERICENTER": 217.9412, "MEAN_ANOMALY": 142.0178, "EPHEMERIS_TYPE": 0, "CLASSIFICATION_TYPE": "U", "NORAD_CAT_ID": 63130, "ELEMENT_SET_NO": 999, "REV_AT_EPOCH": 611, "BSTAR": 0, "MEAN_MOTION_DOT": -5.6e-07, "MEAN_MOTION_DDOT": 0}, "tle": {"line1": "1 63130U 25042A   25348.72203245 -.00000056  00000+0  00000+0 0  9993", "line2": "2 63130  64.9770  79.0784 0007690 217.9412 142.0178  2.13103043  6119"}}, "geometry": {"type": "Point", "coordinates": [15.276287698393828, -62.51983448828057]}}, {"type": "Feature", "properties": {"norad_id": 65590, "name": "COSMOS 2596 (708K)", "group": "glo-ops", "lat": 35.82077220151924, "lon": -18.818897097103143, "alt_km": 19128.109371032002, "timestamp": "2025-12-18T08:58:43.672326+00:00", "meta": {"OBJECT_NAME": "COSMOS 2596 (708K)", "OBJECT_ID": "2025-206B", "EPOCH": "2025-12-16T13:58:37.157664", "MEAN_MOTION": 2.13100551, "ECCENTRICITY": 0.00140491, "INCLINATION": 64.7424, "RA_OF_ASC_NODE": 321.3409, "ARG_OF_PERICENTER": 306.7915, "MEAN_ANOMALY": 158.8114, "EPHEMERIS_TYPE": 0, "CLASSIFICATION_TYPE": "U", "NORAD_CAT_ID": 65590, "ELEMENT_SET_NO": 999, "REV_AT_EPOCH": 202, "BSTAR": 0, "MEAN_MOTION_DOT": -6.9e-07, "MEAN_MOTION_DDOT": 0}, "tle": {"line1": "1 65590U 25206B   25350.58237451 -.00000069  00000+0  00000+0 0  9994", "line2": "2 65590  64.7424 321.3409 0014049 306.7915 158.8114  2.13100551  2025"}}, "geometry": {"type": "Point", "coordinates": [-18.818897097103143, 35.82077220151924]}}]}